[Satellite]
VERSION=1.1
NAME=LUCH (OLYMP)
NICKNAME=LUCH (OLYMP)
TLE1=1 40258U 14058A   17186.19910830  .00000063  00000-0  00000-0 0  9990
TLE2=2 40258   0.0278 126.2245 0000888 327.4420 271.2701  1.00271010 10166
